{"type": "FeatureCollection", "features": [{"type": "Feature", "properties": {"norad_id": 28890, "name": "BEIJING 1", "group": "dmc", "lat": 52.67230510709521, "lon": 115.8385649344067, "alt_km": 670.2812862674518, "timestamp": "2025-12-25T07:00:33.709019+00:00", "meta": {"OBJECT_NAME": "BEIJING 1", "OBJECT_ID": "2005-043A", "EPOCH": "2025-12-24T22:33:39.428352", "MEAN_MOTION": 14.6337699, "ECCENTRICITY": 0.00158282, "INCLINATION": 98.2665, "RA_OF_ASC_NODE": 126.4766, "ARG_OF_PERICENTER": 105.4148, "MEAN_ANOMALY": 254.8804, "EPHEMERIS_TYPE": 0, "CLASSIFICATION_TYPE": "U", "NORAD_CAT_ID": 28890, "ELEMENT_SET_NO": 999, "REV_AT_EPOCH": 7516, "BSTAR": 0.00010442755, "MEAN_MOTION_DOT": 4.92e-06, "MEAN_MOTION_DDOT": 0}, "tle": {"line1": "1 28890U 05043A   25358.94003968  .00000492  00000+0  10443-3 0  9990", "line2": "2 28890  98.2665 126.4766 0015828 105.4148 254.8804 14.63376990 75162"}}, "geometry": {"type": "Point", "coordinates": [115.8385649344067, 52.67230510709521]}}, {"type": "Feature", "properties": {"norad_id": 33320, "name": "HUANJING 1A (HJ-1A)", "group": "dmc", "lat": -80.62042931072995, "lon": 112.55633580016637, "alt_km": 625.7845584415063, "timestamp": "2025-12-25T07:00:33.709042+00:00", "meta": {"OBJECT_NAME": "HUANJING 1A (HJ-1A)", "OBJECT_ID": "2008-041A", "EPOCH": "2025-12-24T23:20:37.272768", "MEAN_MOTION": 14.83429291, "ECCENTRICITY": 0.00192354, "INCLINATION": 97.6549, "RA_OF_ASC_NODE": 346.7603, "ARG_OF_PERICENTER": 355.3207, "MEAN_ANOMALY": 4.7825, "EPHEMERIS_TYPE": 0, "CLASSIFICATION_TYPE": "U", "NORAD_CAT_ID": 33320, "ELEMENT_SET_NO": 999, "REV_AT_EPOCH": 93257, "BSTAR": 0.0001369651, "MEAN_MOTION_DOT": 1.077e-05, "MEAN_MOTION_DDOT": 0}, "tle": {"line1": "1 33320U 08041A   25358.97265362  .00001077  00000+0  13697-3 0  9990", "line2": "2 33320  97.6549 346.7603 0019235 355.3207   4.7825 14.83429291932572"}}, "geometry": {"type": "Point", "coordinates": [112.55633580016637, -80.62042931072995]}}, {"type": "Feature", "properties": {"norad_id": 33321, "name": "HUANJING 1B (HJ-1B)", "group": "dmc", "lat": 77.22036997318656, "lon": -152.98272614929712, "alt_km": 601.5676013748171, "timestamp": "2025-12-25T07:00:33.709057+00:00", "meta": {"OBJECT_NAME": "HUANJING 1B (HJ-1B)", "OBJECT_ID": "2008-041B", "EPOCH": "2025-12-25T00:05:01.820256", "MEAN_MOTION": 14.82852336, "ECCENTRICITY": 0.00376933, "INCLINATION": 97.6405, "RA_OF_ASC_NODE": 350.4547, "ARG_OF_PERICENTER": 36.8761, "MEAN_ANOMALY": 323.5034, "EPHEMERIS_TYPE": 0, "CLASSIFICATION_TYPE": "U", "NORAD_CAT_ID": 33321, "ELEMENT_SET_NO": 999, "REV_AT_EPOCH": 93259, "BSTAR": 0.00018639751, "MEAN_MOTION_DOT": 1.476e-05, "MEAN_MOTION_DDOT": 0}, "tle": {"line1": "1 33321U 08041B   25359.00349329  .00001476  00000+0  18640-3 0  9998", "line2": "2 33321  97.6405 350.4547 0037693  36.8761 323.5034 14.82852336932592"}}, "geometry": {"type": "Point", "coordinates": [-152.98272614929712, 77.22036997318656]}}, {"type": "Feature", "properties": {"norad_id": 33446, "name": "YAOGAN-4", "group": "dmc", "lat": 5.587265466720907, "lon": -71.51123225331048, "alt_km": 622.5100222965457, "timestamp": "2025-12-25T07:00:33.709069+00:00", "meta": {"OBJECT_NAME": "YAOGAN-4", "OBJECT_ID": "2008-061A", "EPOCH": "2025-12-24T19:38:47.517792", "MEAN_MOTION": 14.82716251, "ECCENTRICITY": 0.00129837, "INCLINATION": 97.9197, "RA_OF_ASC_NODE": 288.8002, "ARG_OF_PERICENTER": 280.4799, "MEAN_ANOMALY": 79.4951, "EPHEMERIS_TYPE": 0, "CLASSIFICATION_TYPE": "U", "NORAD_CAT_ID": 33446, "ELEMENT_SET_NO": 999, "REV_AT_EPOCH": 91982, "BSTAR": 0.00017083405, "MEAN_MOTION_DOT": 1.327e-05, "MEAN_MOTION_DDOT": 0}, "tle": {"line1": "1 33446U 08061A   25358.81860553  .00001327  00000+0  17083-3 0  9998", "line2": "2 33446  97.9197 288.8002 0012983 280.4799  79.4951 14.82716251919825"}}, "geometry": {"type": "Point", "coordinates": [-71.51123225331048, 5.587265466720907]}}, {"type": "Feature", "properties": {"norad_id": 35681, "name": "DEIMOS-1", "group": "dmc", "lat": 33.504749739420575, "lon": -15.539205537445339, "alt_km": 643.0702513624801, "timestamp": "2025-12-25T07:00:33.709080+00:00", "meta": {"OBJECT_NAME": "DEIMOS-1", "OBJECT_ID": "2009-041A", "EPOCH": "2025-12-24T23:50:13.325856", "MEAN_MOTION": 14.74969994, "ECCENTRICITY": 0.00024717, "INCLINATION": 97.7156, "RA_OF_ASC_NODE": 159.0267, "ARG_OF_PERICENTER": 60.6986, "MEAN_ANOMALY": 299.447, "EPHEMERIS_TYPE": 0, "CLASSIFICATION_TYPE": "U", "NORAD_CAT_ID": 35681, "ELEMENT_SET_NO": 999, "REV_AT_EPOCH": 88120, "BSTAR": 9.4421262e-05, "MEAN_MOTION_DOT": 5.87e-06, "MEAN_MOTION_DDOT": 0}, "tle": {"line1": "1 35681U 09041A   25358.99320979  .00000587  00000+0  94421-4 0  9991", "line2": "2 35681  97.7156 159.0267 0002471  60.6986 299.4470 14.74969994881205"}}, "geometry": {"type": "Point", "coordinates": [-15.539205537445339, 33.504749739420575]}}, {"type": "Feature", "properties": {"norad_id": 35683, "name": "UK-DMC 2", "group": "dmc", "lat": -11.632208125217057, "lon": -47.78784061029967, "alt_km": 647.7222064461057, "timestamp": "2025-12-25T07:00:33.709092+00:00", "meta": {"OBJECT_NAME": "UK-DMC 2", "OBJECT_ID": "2009-041C", "EPOCH": "2025-12-24T22:00:24.694272", "MEAN_MOTION": 14.75646046, "ECCENTRICITY": 0.00015592, "INCLINATION": 97.8573, "RA_OF_ASC_NODE": 133.4767, "ARG_OF_PERICENTER": 90.9699, "MEAN_ANOMALY": 269.169, "EPHEMERIS_TYPE": 0, "CLASSIFICATION_TYPE": "U", "NORAD_CAT_ID": 35683, "ELEMENT_SET_NO": 999, "REV_AT_EPOCH": 88086, "BSTAR": 0.00013029963, "MEAN_MOTION_DOT": 8.41e-06, "MEAN_MOTION_DDOT": 0}, "tle": {"line1": "1 35683U 09041C   25358.91695248  .00000841  00000+0  13030-3 0  9998", "line2": "2 35683  97.8573 133.4767 0001559  90.9699 269.1690 14.75646046880865"}}, "geometry": {"type": "Point", "coordinates": [-47.78784061029967, -11.632208125217057]}}, {"type": "Feature", "properties": {"norad_id": 40715, "name": "DMC3-FM1", "group": "dmc", "lat": -36.36845397747973, "lon": -128.27909376054208, "alt_km": 616.8317627176139, "timestamp": "2025-12-25T07:00:33.709103+00:00", "meta": {"OBJECT_NAME": "DMC3-FM1", "OBJECT_ID": "2015-032A", "EPOCH": "2025-12-24T21:28:28.210944", "MEAN_MOTION": 14.85459885, "ECCENTRICITY": 0.00040604, "INCLINATION": 97.6681, "RA_OF_ASC_NODE": 225.6442, "ARG_OF_PERICENTER": 270.8523, "MEAN_ANOMALY": 89.2227, "EPHEMERIS_TYPE": 0, "CLASSIFICATION_TYPE": "U", "NORAD_CAT_ID": 40715, "ELEMENT_SET_NO": 999, "REV_AT_EPOCH": 56403, "BSTAR": 7.3064558e-05, "MEAN_MOTION_DOT": 5.79e-06, "MEAN_MOTION_DDOT": 0}, "tle": {"line1": "1 40715U 15032A   25358.89477096  .00000579  00000+0  73065-4 0  9996", "line2": "2 40715  97.6681 225.6442 0004060 270.8523  89.2227 14.85459885564033"}}, "geometry": {"type": "Point", "coordinates": [-128.27909376054208, -36.36845397747973]}}, {"type": "Feature", "properties": {"norad_id": 40716, "name": "DMC3-FM2", "group": "dmc", "lat": -23.006251659686964, "lon": 44.19753641783703, "alt_km": 616.6596629986952, "timestamp": "2025-12-25T07:00:33.709113+00:00", "meta": {"OBJECT_NAME": "DMC3-FM2", "OBJECT_ID": "2015-032B", "EPOCH": "2025-12-24T22:00:50.636736", "MEAN_MOTION": 14.85461645, "ECCENTRICITY": 0.00046457, "INCLINATION": 97.6737, "RA_OF_ASC_NODE": 227.1182, "ARG_OF_PERICENTER": 277.2705, "MEAN_ANOMALY": 82.7983, "EPHEMERIS_TYPE": 0, "CLASSIFICATION_TYPE": "U", "NORAD_CAT_ID": 40716, "ELEMENT_SET_NO": 999, "REV_AT_EPOCH": 56403, "BSTAR": 0.00012250491, "MEAN_MOTION_DOT": 1.005e-05, "MEAN_MOTION_DDOT": 0}, "tle": {"line1": "1 40716U 15032B   25358.91725274  .00001005  00000+0  12250-3 0  9997", "line2": "2 40716  97.6737 227.1182 0004645 277.2705  82.7983 14.85461645564030"}}, "geometry": {"type": "Point", "coordinates": [44.19753641783703, -23.006251659686964]}}, {"type": "Feature", "properties": {"norad_id": 40717, "name": "DMC3-FM3", "group": "dmc", "lat": 81.75951468353719, "lon": 160.4253415415155, "alt_km": 607.4113411629769, "timestamp": "2025-12-25T07:00:33.709123+00:00", "meta": {"OBJECT_NAME": "DMC3-FM3", "OBJECT_ID": "2015-032C", "EPOCH": "2025-12-24T22:32:08.239200", "MEAN_MOTION": 14.85449295, "ECCENTRICITY": 0.00039031, "INCLINATION": 97.6792, "RA_OF_ASC_NODE": 228.7805, "ARG_OF_PERICENTER": 278.0687, "MEAN_ANOMALY": 82.0086, "EPHEMERIS_TYPE": 0, "CLASSIFICATION_TYPE": "U", "NORAD_CAT_ID": 40717, "ELEMENT_SET_NO": 999, "REV_AT_EPOCH": 56404, "BSTAR": 0.00017718823, "MEAN_MOTION_DOT": 1.476e-05, "MEAN_MOTION_DDOT": 0}, "tle": {"line1": "1 40717U 15032C   25358.93898425  .00001476  00000+0  17719-3 0  9996", "line2": "2 40717  97.6792 228.7805 0003903 278.0687  82.0086 14.85449295564040"}}, "geometry": {"type": "Point", "coordinates": [160.4253415415155, 81.75951468353719]}}]}